[{"OBJECT_NAME":"GLOBALSTAR M096","OBJECT_ID":"2013-005D","EPOCH":"2026-03-03T10:31:28.785504","MEAN_MOTION":12.62263276,"ECCENTRICITY":8.893e-5,"INCLINATION":52.0066,"RA_OF_ASC_NODE":161.4899,"ARG_OF_PERICENTER":109.1511,"MEAN_ANOMALY":250.9452,"EPHEMERIS_TYPE":0,"CLASSIFICATION_TYPE":"U","NORAD_CAT_ID":39075,"ELEMENT_SET_NO":999,"REV_AT_EPOCH":60403,"BSTAR":4.128568e-6,"MEAN_MOTION_DOT":-1.03e-6,"MEAN_MOTION_DDOT":0},{"OBJECT_NAME":"GLOBALSTAR M078","OBJECT_ID":"2013-005E","EPOCH":"2026-03-03T15:35:15.828864","MEAN_MOTION":12.62275925,"ECCENTRICITY":0.000149,"INCLINATION":51.9853,"RA_OF_ASC_NODE":245.0041,"ARG_OF_PERICENTER":62.5648,"MEAN_ANOMALY":297.537,"EPHEMERIS_TYPE":0,"CLASSIFICATION_TYPE":"U","NORAD_CAT_ID":39076,"ELEMENT_SET_NO":999,"REV_AT_EPOCH":60268,"BSTAR":-3.2499e-6,"MEAN_MOTION_DOT":-1.04e-6,"MEAN_MOTION_DDOT":0},{"OBJECT_NAME":"GLOBALSTAR M095","OBJECT_ID":"2013-005F","EPOCH":"2026-03-03T16:13:35.327712","MEAN_MOTION":12.62276212,"ECCENTRICITY":0.0001359,"INCLINATION":52.006,"RA_OF_ASC_NODE":242.3782,"ARG_OF_PERICENTER":85.8876,"MEAN_ANOMALY":274.2146,"EPHEMERIS_TYPE":0,"CLASSIFICATION_TYPE":"U","NORAD_CAT_ID":39077,"ELEMENT_SET_NO":999,"REV_AT_EPOCH":60254,"BSTAR":2.2722e-5,"MEAN_MOTION_DOT":-1.0e-6,"MEAN_MOTION_DDOT":0},{"OBJECT_NAME":"GLOBALSTAR M087","OBJECT_ID":"2022-064A","EPOCH":"2026-03-03T01:20:35.679264","MEAN_MOTION":12.62266769,"ECCENTRICITY":6.597e-5,"INCLINATION":52.0018,"RA_OF_ASC_NODE":25.5635,"ARG_OF_PERICENTER":84.9139,"MEAN_ANOMALY":275.1803,"EPHEMERIS_TYPE":0,"CLASSIFICATION_TYPE":"U","NORAD_CAT_ID":52888,"ELEMENT_SET_NO":999,"REV_AT_EPOCH":17773,"BSTAR":-9.707917e-6,"MEAN_MOTION_DOT":-1.06e-6,"MEAN_MOTION_DDOT":0}]
