GLOBALSTAR M096         
1 39075U 13005D   26062.43852761 -.00000103  00000+0  41286-5 0  9995
2 39075  52.0066 161.4899 0000889 109.1511 250.9452 12.62263276604033
GLOBALSTAR M078         
1 39076U 13005E   26062.64948876 -.00000104  00000+0 -32499-5 0  9990
2 39076  51.9853 245.0041 0001490  62.5648 297.5370 12.62275925602685
GLOBALSTAR M095         
1 39077U 13005F   26062.67610333 -.00000100  00000+0  22722-4 0  9990
2 39077  52.0060 242.3782 0001359  85.8876 274.2146 12.62276212602543
GLOBALSTAR M087         
1 52888U 22064A   26062.05596851 -.00000106  00000+0 -97079-5 0  9995
2 52888  52.0018  25.5635 0000659  84.9139 275.1803 12.62266769177737
